{"type": "FeatureCollection", "features": [ {"type": "Feature", "properties": {"norad_id": 37834, "name": "INTELSAT 18 (IS-18)", "group": "intelsat", "lat": 0.02377588025260467, "lon": 121.69363839521355, "alt_km": 35793.08301709268, "timestamp": "2025-12-09T14:52:25.833771+00:00", "meta": {"OBJECT_NAME": "INTELSAT 18 (IS-18)", "OBJECT_ID": "2011-056A", "EPOCH": "2025-12-09T04:12:38.575872", "MEAN_MOTION": 1.00271228, "ECCENTRICITY": 0.00020722, "INCLINATION": 0.0171, "RA_OF_ASC_NODE": 340.7775, "ARG_OF_PERICENTER": 282.5909, "MEAN_ANOMALY": 57.9593, "EPHEMERIS_TYPE": 0, "CLASSIFICATION_TYPE": "U", "NORAD_CAT_ID": 37834, "ELEMENT_SET_NO": 999, "REV_AT_EPOCH": 5190, "BSTAR": 0, "MEAN_MOTION_DOT": 5.5e-07, "MEAN_MOTION_DDOT": 0}, "tle": {"line1": "1 37834U 11056A   25343.17544648  .00000055  00000+0  00000+0 0  9992", "line2": "2 37834   0.0171 340.7775 0002072 282.5909  57.9593  1.00271228 51901"}}, "geometry": {"type": "Point", "coordinates": [121.69363839521355, 0.02377588025260467]}}, {"type": "Feature", "properties": {"norad_id": 38098, "name": "INTELSAT 22 (IS-22)", "group": "intelsat", "lat": 0.026754172279309946, "lon": 13.849738147414449, "alt_km": 35787.60507869603, "timestamp": "2025-12-09T14:52:25.833784+00:00", "meta": {"OBJECT_NAME": "INTELSAT 22 (IS-22)", "OBJECT_ID": "2012-011A", "EPOCH": "2025-12-09T01:55:53.146272", "MEAN_MOTION": 1.00274321, "ECCENTRICITY": 0.00015486, "INCLINATION": 0.0174, "RA_OF_ASC_NODE": 307.8083, "ARG_OF_PERICENTER": 316.0442, "MEAN_ANOMALY": 275.3111, "EPHEMERIS_TYPE": 0, "CLASSIFICATION_TYPE": "U", "NORAD_CAT_ID": 38098, "ELEMENT_SET_NO": 999, "REV_AT_EPOCH": 528, "BSTAR": 0, "MEAN_MOTION_DOT": -5.7e-07, "MEAN_MOTION_DDOT": 0}, "tle": {"line1": "1 38098U 12011A   25343.08047623 -.00000057  00000+0  00000+0 0  9991", "line2": "2 38098   0.0174 307.8083 0001548 316.0442 275.3111  1.00274321  5284"}}, "geometry": {"type": "Point", "coordinates": [13.849738147414449, 0.026754172279309946]}}, {"type": "Feature", "properties": {"norad_id": 38356, "name": "INTELSAT 19 (IS-19)", "group": "intelsat", "lat": 0.023130545726161213, "lon": 107.70122571081184, "alt_km": 35800.00338874016, "timestamp": "2025-12-09T14:52:25.833796+00:00", "meta": {"OBJECT_NAME": "INTELSAT 19 (IS-19)", "OBJECT_ID": "2012-030A", "EPOCH": "2025-12-09T04:32:38.741856", "MEAN_MOTION": 1.0027164, "ECCENTRICITY": 0.00035409, "INCLINATION": 0.0095, "RA_OF_ASC_NODE": 336.8846, "ARG_OF_PERICENTER": 288.7748, "MEAN_ANOMALY": 46.6902, "EPHEMERIS_TYPE": 0, "CLASSIFICATION_TYPE": "U", "NORAD_CAT_ID": 38356, "ELEMENT_SET_NO": 999, "REV_AT_EPOCH": 4854, "BSTAR": 0, "MEAN_MOTION_DOT": -5.4e-07, "MEAN_MOTION_DDOT": 0}, "tle": {"line1": "1 38356U 12030A   25343.18933729 -.00000054  00000+0  00000+0 0  9998", "line2": "2 38356   0.0095 336.8846 0003540 288.7748  46.6902  1.00271640 48544"}}, "geometry": {"type": "Point", "coordinates": [107.70122571081184, 0.023130545726161213]}}, {"type": "Feature", "properties": {"norad_id": 38740, "name": "INTELSAT 20 (IS-20)", "group": "intelsat", "lat": 0.00164757329732958, "lon": 10.217475429631195, "alt_km": 35799.47774331573, "timestamp": "2025-12-09T14:52:25.833808+00:00", "meta": {"OBJECT_NAME": "INTELSAT 20 (IS-20)", "OBJECT_ID": "2012-043A", "EPOCH": "2025-12-09T03:37:36.247008", "MEAN_MOTION": 1.00269877, "ECCENTRICITY": 0.00031015, "INCLINATION": 0.001, "RA_OF_ASC_NODE": 36.655, "ARG_OF_PERICENTER": 144.7813, "MEAN_ANOMALY": 19.6244, "EPHEMERIS_TYPE": 0, "CLASSIFICATION_TYPE": "U", "NORAD_CAT_ID": 38740, "ELEMENT_SET_NO": 999, "REV_AT_EPOCH": 4884, "BSTAR": 0, "MEAN_MOTION_DOT": -2.2e-07, "MEAN_MOTION_DDOT": 0}, "tle": {"line1": "1 38740U 12043A   25343.15111397 -.00000022  00000+0  00000+0 0  9990", "line2": "2 38740   0.0010  36.6550 0003101 144.7813  19.6244  1.00269877 48843"}}, "geometry": {"type": "Point", "coordinates": [10.217475429631195, 0.00164757329732958]}}, {"type": "Feature", "properties": {"norad_id": 38749, "name": "INTELSAT 21 (IS-21)", "group": "intelsat", "lat": -0.0192334581899683, "lon": -116.2914994136968, "alt_km": 35777.50663229587, "timestamp": "2025-12-09T14:52:25.833819+00:00", "meta": {"OBJECT_NAME": "INTELSAT 21 (IS-21)", "OBJECT_ID": "2012-045A", "EPOCH": "2025-12-09T06:26:57.820128", "MEAN_MOTION": 1.00270453, "ECCENTRICITY": 0.00021697, "INCLINATION": 0.0109, "RA_OF_ASC_NODE": 34.5209, "ARG_OF_PERICENTER": 220.8688, "MEAN_ANOMALY": 221.6162, "EPHEMERIS_TYPE": 0, "CLASSIFICATION_TYPE": "U", "NORAD_CAT_ID": 38749, "ELEMENT_SET_NO": 999, "REV_AT_EPOCH": 4862, "BSTAR": 0, "MEAN_MOTION_DOT": -2.83e-06, "MEAN_MOTION_DDOT": 0}, "tle": {"line1": "1 38749U 12045A   25343.26872477 -.00000283  00000+0  00000+0 0  9995", "line2": "2 38749   0.0109  34.5209 0002169 220.8688 221.6162  1.00270453 48620"}}, "geometry": {"type": "Point", "coordinates": [-116.2914994136968, -0.0192334581899683]}}, {"type": "Feature", "properties": {"norad_id": 38867, "name": "INTELSAT 23 (IS-23)", "group": "intelsat", "lat": -0.0061002654592824815, "lon": -111.30127535456907, "alt_km": 35783.913039086925, "timestamp": "2025-12-09T14:52:25.833831+00:00", "meta": {"OBJECT_NAME": "INTELSAT 23 (IS-23)", "OBJECT_ID": "2012-057A", "EPOCH": "2025-12-09T04:38:57.249888", "MEAN_MOTION": 1.00260511, "ECCENTRICITY": 0.00020435, "INCLINATION": 0.0419, "RA_OF_ASC_NODE": 93.2966, "ARG_OF_PERICENTER": 103.9407, "MEAN_ANOMALY": 257.6748, "EPHEMERIS_TYPE": 0, "CLASSIFICATION_TYPE": "U", "NORAD_CAT_ID": 38867, "ELEMENT_SET_NO": 999, "REV_AT_EPOCH": 4805, "BSTAR": 0, "MEAN_MOTION_DOT": -2.83e-06, "MEAN_MOTION_DDOT": 0}, "tle": {"line1": "1 38867U 12057A   25343.19371817 -.00000283  00000+0  00000+0 0  9993", "line2": "2 38867   0.0419  93.2966 0002043 103.9407 257.6748  1.00260511 48058"}}, "geometry": {"type": "Point", "coordinates": [-111.30127535456907, -0.0061002654592824815]}}, {"type": "Feature", "properties": {"norad_id": 39360, "name": "FM-6", "group": "intelsat", "lat": -0.00017509587822509462, "lon": -174.42183562509476, "alt_km": 35773.92465495612, "timestamp": "2025-12-09T14:52:25.833843+00:00", "meta": {"OBJECT_NAME": "FM-6", "OBJECT_ID": "2013-058A", "EPOCH": "2025-12-09T01:36:38.760192", "MEAN_MOTION": 1.00271481, "ECCENTRICITY": 0.00030137, "INCLINATION": 0.0026, "RA_OF_ASC_NODE": 36.2279, "ARG_OF_PERICENTER": 134.4121, "MEAN_ANOMALY": 175.4422, "EPHEMERIS_TYPE": 0, "CLASSIFICATION_TYPE": "U", "NORAD_CAT_ID": 39360, "ELEMENT_SET_NO": 999, "REV_AT_EPOCH": 4416, "BSTAR": 0, "MEAN_MOTION_DOT": -1.5e-07, "MEAN_MOTION_DDOT": 0}, "tle": {"line1": "1 39360U 13058A   25343.06711528 -.00000015  00000+0  00000+0 0  9990", "line2": "2 39360   0.0026  36.2279 0003013 134.4121 175.4422  1.00271481 44167"}}, "geometry": {"type": "Point", "coordinates": [-174.42183562509476, -0.00017509587822509462]}}, {"type": "Feature", "properties": {"norad_id": 40271, "name": "INTELSAT 30 (IS-30)", "group": "intelsat", "lat": -0.012779108619471303, "lon": -153.32863446134732, "alt_km": 35788.60768203296, "timestamp": "2025-12-09T14:52:25.833855+00:00", "meta": {"OBJECT_NAME": "INTELSAT 30 (IS-30)", "OBJECT_ID": "2014-062A", "EPOCH": "2025-12-09T04:04:38.822592", "MEAN_MOTION": 1.00272205, "ECCENTRICITY": 0.00013103, "INCLINATION": 0.013, "RA_OF_ASC_NODE": 15.3198, "ARG_OF_PERICENTER": 73.1869, "MEAN_ANOMALY": 315.7647, "EPHEMERIS_TYPE": 0, "CLASSIFICATION_TYPE": "U", "NORAD_CAT_ID": 40271, "ELEMENT_SET_NO": 999, "REV_AT_EPOCH": 487, "BSTAR": 0, "MEAN_MOTION_DOT": -1.49e-06, "MEAN_MOTION_DDOT": 0}, "tle": {"line1": "1 40271U 14062A   25343.16989378 -.00000149  00000+0  00000+0 0  9998", "line2": "2 40271   0.0130  15.3198 0001310  73.1869 315.7647  1.00272205  4877"}}, "geometry": {"type": "Point", "coordinates": [-153.32863446134732, -0.012779108619471303]}}, {"type": "Feature", "properties": {"norad_id": 40333, "name": "DIRECTV 14", "group": "intelsat", "lat": -0.02783906064484921, "lon": -157.50831881227137, "alt_km": 35785.672268019945, "timestamp": "2025-12-09T14:52:25.833866+00:00", "meta": {"OBJECT_NAME": "DIRECTV 14", "OBJECT_ID": "2014-078B", "EPOCH": "2025-12-09T07:01:22.702368", "MEAN_MOTION": 1.002696, "ECCENTRICITY": 2.52e-05, "INCLINATION": 0.0178, "RA_OF_ASC_NODE": 330.993, "ARG_OF_PERICENTER": 244.1415, "MEAN_ANOMALY": 229.2783, "EPHEMERIS_TYPE": 0, "CLASSIFICATION_TYPE": "U", "NORAD_CAT_ID": 40333, "ELEMENT_SET_NO": 999, "REV_AT_EPOCH": 4014, "BSTAR": 0, "MEAN_MOTION_DOT": -1.23e-06, "MEAN_MOTION_DDOT": 0}, "tle": {"line1": "1 40333U 14078B   25343.29262387 -.00000123  00000+0  00000+0 0  9994", "line2": "2 40333   0.0178 330.9930 0000252 244.1415 229.2783  1.00269600 40144"}}, "geometry": {"type": "Point", "coordinates": [-157.50831881227137, -0.02783906064484921]}}, {"type": "Feature", "properties": {"norad_id": 40663, "name": "DIRECTV 15", "group": "intelsat", "lat": 0.018620684382271883, "lon": -161.1600506930904, "alt_km": 35786.80345798647, "timestamp": "2025-12-09T14:52:25.833878+00:00", "meta": {"OBJECT_NAME": "DIRECTV 15", "OBJECT_ID": "2015-026A", "EPOCH": "2025-12-09T06:59:11.880672", "MEAN_MOTION": 1.00269121, "ECCENTRICITY": 3.089e-05, "INCLINATION": 0.0389, "RA_OF_ASC_NODE": 80.9125, "ARG_OF_PERICENTER": 206.8649, "MEAN_ANOMALY": 152.4404, "EPHEMERIS_TYPE": 0, "CLASSIFICATION_TYPE": "U", "NORAD_CAT_ID": 40663, "ELEMENT_SET_NO": 999, "REV_AT_EPOCH": 3855, "BSTAR": 0, "MEAN_MOTION_DOT": -1e-06, "MEAN_MOTION_DDOT": 0}, "tle": {"line1": "1 40663U 15026A   25343.29110973 -.00000100  00000+0  00000+0 0  9992", "line2": "2 40663   0.0389  80.9125 0000308 206.8649 152.4404  1.00269121 38555"}}, "geometry": {"type": "Point", "coordinates": [-161.1600506930904, 0.018620684382271883]}}]}